[
    {
        "CCSDS_OMM_VERS": "3.0",
        "COMMENT": "GENERATED VIA SPACE-TRACK.ORG API",
        "CREATION_DATE": "2025-04-14T03:05:54",
        "ORIGINATOR": "18 SPCS",
        "OBJECT_NAME": "BEIDOU 3G1",
        "OBJECT_ID": "2018-085A",
        "CENTER_NAME": "EARTH",
        "REF_FRAME": "TEME",
        "TIME_SYSTEM": "UTC",
        "MEAN_ELEMENT_THEORY": "SGP4",
        "EPOCH": "2025-04-13T22:04:39.150912",
        "MEAN_MOTION": "1.00268129",
        "ECCENTRICITY": "0.00036700",
        "INCLINATION": "2.9442",
        "RA_OF_ASC_NODE": "99.7312",
        "ARG_OF_PERICENTER": "355.6876",
        "MEAN_ANOMALY": "218.0645",
        "EPHEMERIS_TYPE": "0",
        "CLASSIFICATION_TYPE": "U",
        "NORAD_CAT_ID": "43683",
        "ELEMENT_SET_NO": "999",
        "REV_AT_EPOCH": "2375",
        "BSTAR": "0.00000000000000",
        "MEAN_MOTION_DOT": "-0.00000269",
        "MEAN_MOTION_DDOT": "0.0000000000000",
        "SEMIMAJOR_AXIS": "42165.757",
        "PERIOD": "1436.149",
        "APOAPSIS": "35803.097",
        "PERIAPSIS": "35772.147",
        "OBJECT_TYPE": "PAYLOAD",
        "RCS_SIZE": "LARGE",
        "COUNTRY_CODE": "PRC",
        "LAUNCH_DATE": "2018-11-01",
        "SITE": "XSC",
        "DECAY_DATE": null,
        "FILE": "4701263",
        "GP_ID": "285538514",
        "TLE_LINE0": "0 BEIDOU 3G1",
        "TLE_LINE1": "1 43683U 18085A   25103.91989758 -.00000269  00000-0  00000-0 0  9991",
        "TLE_LINE2": "2 43683   2.9442  99.7312 0003670 355.6876 218.0645  1.00268129 23756"
    }
]